*******************************************************************************
 Revised: June 21, 2016                 Mars                            499 / 4
 
 PHYSICAL DATA (updated 2019-Oct-29):
  Vol. mean radius (km) = 3389.92+-0.04   Density (g/cm^3)      =  3.933(5+-4)
  Mass x10^23 (kg)      =    6.4171       Flattening, f         =  1/169.779
  Volume (x10^10 km^3)  =   16.318        Equatorial radius (km)=  3396.19
  Sidereal rot. period  =   24.622962 hr  Sid. rot. rate, rad/s =  0.0000708822 
  Mean solar day (sol)  =   88775.24415 s Polar gravity m/s^2   =  3.758
  Core radius (km)      = ~1700           Equ. gravity  m/s^2   =  3.71
  Geometric Albedo      =    0.150                                              

  GM (km^3/s^2)         = 42828.375214    Mass ratio (Sun/Mars) = 3098703.59
  GM 1-sigma (km^3/s^2) = +- 0.00028      Mass of atmosphere, kg= ~ 2.5 x 10^16
  Mean temperature (K)  =  210            Atmos. pressure (bar) =    0.0056 
  Obliquity to orbit    =   25.19 deg     Max. angular diam.    =  17.9"
  Mean sidereal orb per =    1.88081578 y Visual mag. V(1,0)    =  -1.52
  Mean sidereal orb per =  686.98 d       Orbital speed,  km/s  =  24.13
  Hill's sphere rad. Rp =  319.8          Escape speed, km/s    =   5.027
                                 Perihelion  Aphelion    Mean
  Solar Constant (W/m^2)         717         493         589
  Maximum Planetary IR (W/m^2)   470         315         390
  Minimum Planetary IR (W/m^2)    30          30          30
*******************************************************************************


*******************************************************************************
Ephemeris / WWW_USER Sat May 25 20:17:27 2024 Pasadena, USA      / Horizons    
*******************************************************************************
Target body name: Mars (499)                      {source: mar097}
Center body name: Sun (10)                        {source: DE441}
Center-site name: BODYCENTRIC
*******************************************************************************
Start time      : A.D. 1900-Jan-01 00:00:00.0000 UT      
Stop  time      : A.D. 2100-Jan-01 00:00:00.0000 UT      
Step-size       : 1 calendar month
*******************************************************************************
Target pole/equ : IAU_MARS                        {West-longitude positive}
Target radii    : 3396.19, 3396.19, 3376.2 km     {Equator_a, b, pole_c}       
Center geodetic : 0.0, 0.0, -695700.0             {E-lon(deg),Lat(deg),Alt(km)}
Center cylindric: 0.0, 0.0, 0.0                   {E-lon(deg),Dxy(km),Dz(km)}
Center pole/equ : IAU_SUN                         {East-longitude positive}
Center radii    : 695700.0, 695700.0, 695700.0 km {Equator_a, b, pole_c}       
Target primary  : Sun
Vis. interferer : None
Rel. light bend : Sun                             {source: DE441}
Rel. lght bnd GM: 1.3271E+11 km^3/s^2                                          
Atmos refraction: NO (AIRLESS)
RA format       : DEG
Time format     : CAL 
Calendar mode   : Mixed Julian/Gregorian
EOP file        : eop.240523.p240816                                           
EOP coverage    : DATA-BASED 1962-JAN-20 TO 2024-MAY-23. PREDICTS-> 2024-AUG-15
Units conversion: 1 au= 149597870.700 km, c= 299792.458 km/s, 1 day= 86400.0 s 
Table cut-offs 1: Elevation (-90.0deg=NO ),Airmass     n.a.    , Daylight (NO )
Table cut-offs 2: Solar elongation (  0.0,180.0=NO ),Local Hour Angle( 0.0=NO )
Table cut-offs 3: RA/DEC angular rate (     0.0=NO )                           
Table format    : Comma Separated Values (spreadsheet)
*******************************************************************************
 Date__(UT)__HR:MN, , , hEcl-Lon,hEcl-Lat,      PlAng,  Tru_Anom,  App_Lon_Sun,
*******************************************************************************
$$SOE
 2033-Jan-01 00:00, , , 186.2001,  1.2660,    0.00097,  209.9543,  101.1932366,
 2033-Feb-01 00:00, , , 200.2994,  0.9002,    0.00109,  224.0523,  115.2948980,
 2033-Mar-01 00:00, , , 213.4554,  0.5095,    0.00121,  237.2128,  128.4558503,
 2033-Apr-01 00:00, , , 228.6273,  0.0269,    0.00136,  252.3926,  143.6351896,
 2033-May-01 00:00, , , 244.0413, -0.4651,    0.00152,  267.8144,  159.0568889,
 2033-Jun-01 00:00, , , 260.8269, -0.9616,    0.00171,  284.6079,  175.8482895,
 2033-Jul-01 00:00, , , 277.9414, -1.3831,    0.00190,  301.7279,  192.9642054,
 2033-Aug-01 00:00, , , 296.4757, -1.7004,    0.00210,  320.2666,  211.4943266,
 2033-Sep-01 00:00, , , 315.7005, -1.8429,    0.00230,  339.4948,  230.7104493,
 2033-Oct-01 00:00, , , 334.6828, -1.7821,    0.00248,  358.4798,  249.6835362,
 2033-Nov-01 00:00, , , 354.3199, -1.5156,    0.00264,   18.1238,  269.3146998,
 2033-Dec-01 00:00, , ,  12.9888, -1.0980,    0.00278,   36.8068,  287.9837307,
 2034-Jan-01 00:00, , ,  31.6335, -0.5655,    0.00291,   55.4699,  306.6344834,
 2034-Feb-01 00:00, , ,  49.4350, -0.0007,    0.00301,   73.2879,  324.4449274,
 2034-Mar-01 00:00, , ,  64.7326,  0.4868,    0.00309,   88.5970,  339.7503191,
 2034-Apr-01 00:00, , ,  80.8320,  0.9619,    0.00318,  104.7018,  355.8554385,
 2034-May-01 00:00, , ,  95.6600,  1.3334,    0.00326,  119.5285,   10.6851949,
 2034-Jun-01 00:00, , , 110.3323,  1.6136,    0.00335,  134.1956,   25.3553976,
 2034-Jul-01 00:00, , , 124.0402,  1.7805,    0.00345,  147.8939,   39.0584289,
 2034-Aug-01 00:00, , , 137.8476,  1.8462,    0.00357,  161.6879,   52.8592339,
 2034-Sep-01 00:00, , , 151.4451,  1.8067,    0.00371,  175.2713,   66.4500087,
 2034-Oct-01 00:00, , , 164.5494,  1.6727,    0.00387,  188.3627,   79.5491702,
 2034-Nov-01 00:00, , , 178.1843,  1.4410,    0.00405,  201.9886,   93.1812797,
 2034-Dec-01 00:00, , , 191.6148,  1.1333,    0.00424,  215.4162,  106.6121135,
 2035-Jan-01 00:00, , , 205.8883,  0.7387,    0.00447,  229.6912,  120.8892445,
 2035-Feb-01 00:00, , , 220.7166,  0.2807,    0.00472,  244.5239,  135.7241083,
 2035-Mar-01 00:00, , , 234.7090, -0.1692,    0.00497,  258.5194,  149.7237635,
 2035-Apr-01 00:00, , , 250.9795, -0.6778,    0.00526,  274.7887,  166.0016055,
 2035-May-01 00:00, , , 267.5790, -1.1405,    0.00555,  291.3816,  182.6052906,
 2035-Jun-01 00:00, , , 285.6220, -1.5343,    0.00585,  309.4120,  200.6474660,
 2035-Jul-01 00:00, , , 303.8517, -1.7789,    0.00611,  327.6249,  218.8711358,
 2035-Aug-01 00:00, , , 323.2641, -1.8428,    0.00633,  347.0189,  238.2740578,
 2035-Sep-01 00:00, , , 342.9285, -1.6941,    0.00649,    6.6654,  257.9298329,
 2035-Oct-01 00:00, , ,   1.8328, -1.3645,    0.00658,   25.5536,  276.8306510,
 2035-Nov-01 00:00, , ,  20.8881, -0.8833,    0.00660,   44.5980,  295.8887610,
 2035-Dec-01 00:00, , ,  38.6200, -0.3472,    0.00658,   62.3275,  313.6281276,
 2036-Jan-01 00:00, , ,  56.0757,  0.2131,    0.00652,   79.7912,  331.0930774,
 2036-Feb-01 00:00, , ,  72.6266,  0.7270,    0.00644,   96.3620,  347.6515824,
 2036-Mar-01 00:00, , ,  87.3441,  1.1345,    0.00636,  111.1014,    2.3727912,
 2036-Apr-01 00:00, , , 102.3649,  1.4734,    0.00629,  126.1424,   17.3935756,
 2036-May-01 00:00, , , 116.3302,  1.6985,    0.00623,  140.1219,   31.3554119,
 2036-Jun-01 00:00, , , 130.3188,  1.8233,    0.00620,  154.1161,   45.3380772,
 2036-Jul-01 00:00, , , 143.5728,  1.8419,    0.00619,  167.3683,   58.5854551,
 2036-Aug-01 00:00, , , 157.1267,  1.7596,    0.00621,  180.9182,   72.1331386,
 2036-Sep-01 00:00, , , 170.6894,  1.5791,    0.00625,  194.4781,   85.6914808,
 2036-Oct-01 00:00, , , 183.9688,  1.3170,    0.00632,  207.7602,   98.9694695,
 2036-Nov-01 00:00, , , 198.0022,  0.9637,    0.00641,  221.8036,  113.0047184,
 2036-Dec-01 00:00, , , 212.0300,  0.5530,    0.00652,  235.8455,  127.0374014,
 2037-Jan-01 00:00, , , 227.1360,  0.0746,    0.00666,  250.9688,  142.1508563,
 2037-Feb-01 00:00, , , 243.0006, -0.4328,    0.00682,  266.8499,  158.0234424,
 2037-Mar-01 00:00, , , 258.0725, -0.8848,    0.00696,  281.9312,  173.1009677,
 2037-Apr-01 00:00, , , 275.6288, -1.3326,    0.00710,  299.4911,  190.6594269,
 2037-May-01 00:00, , , 293.4540, -1.6599,    0.00720,  317.3138,  208.4814860,
 2037-Jun-01 00:00, , , 312.5853, -1.8334,    0.00725,  336.4369,  227.6046726,
 2037-Jul-01 00:00, , , 331.5276, -1.8057,    0.00724,  355.3702,  246.5375523,
 2037-Aug-01 00:00, , , 351.1842, -1.5707,    0.00714,   15.0202,  266.1874605,
 2037-Sep-01 00:00, , ,  10.5435, -1.1600,    0.00698,   34.3761,  285.5459872,
 2037-Oct-01 00:00, , ,  28.6908, -0.6547,    0.00676,   52.5239,  303.6984448,
 2037-Nov-01 00:00, , ,  46.6341, -0.0907,    0.00650,   70.4667,  321.6504191,
 2037-Dec-01 00:00, , ,  63.1377,  0.4372,    0.00623,   86.9640,  338.1625607,
 2038-Jan-01 00:00, , ,  79.3199,  0.9200,    0.00595,  103.1345,  354.3509390,
 2038-Feb-01 00:00, , ,  94.7034,  1.3118,    0.00569,  118.5031,    9.7366155,
 2038-Mar-01 00:00, , , 108.0176,  1.5758,    0.00546,  131.8026,   23.0492263,
 2038-Apr-01 00:00, , , 122.2502,  1.7640,    0.00524,  146.0201,   37.2770164,
 2038-May-01 00:00, , , 135.6549,  1.8424,    0.00504,  159.4100,   50.6753614,
 2038-Jun-01 00:00, , , 149.2759,  1.8193,    0.00486,  173.0151,   64.2895564,
 2038-Jul-01 00:00, , , 162.3783,  1.7005,    0.00470,  186.1037,   77.3864000,
 2038-Aug-01 00:00, , , 175.9856,  1.4836,    0.00456,  199.6996,   90.9903447,
 2038-Sep-01 00:00, , , 189.8157,  1.1778,    0.00443,  213.5238,  104.8203057,
 2038-Oct-01 00:00, , , 203.5593,  0.8061,    0.00432,  227.2685,  118.5669609,
 2038-Nov-01 00:00, , , 218.2843,  0.3573,    0.00422,  241.9995,  133.2980572,
 2038-Dec-01 00:00, , , 233.1797, -0.1206,    0.00412,  256.9047,  148.2010859,
 2039-Jan-01 00:00, , , 249.3651, -0.6296,    0.00401,  273.1026,  164.3940417,
 2039-Feb-01 00:00, , , 266.4446, -1.1117,    0.00389,  290.1923,  181.4781762,
 2039-Mar-01 00:00, , , 282.6549, -1.4791,    0.00376,  306.4088,  197.6883518,
 2039-Apr-01 00:00, , , 301.3910, -1.7557,    0.00358,  325.1483,  216.4188857,
